COSMOS 2547             
1 46805U 20075A   26086.76204793 -.00000031  00000+0  00000+0 0  9990
2 46805  64.5985 195.1905 0007370 232.5213 127.4084  2.13100219 42176
GPS BIII-4              
1 46826U 20078A   26093.71740322 -.00000003  00000+0  00000+0 0  9991
2 46826  53.9941 213.7975 0069863 205.1343 325.3254  2.00565259 40016
GSAT0223 (GALILEO 27)   
1 49809U 21116A   26085.57513177 -.00000095  00000+0  00000+0 0  9991
2 49809  57.1864 343.9082 0001802 284.7150 254.2688  1.70475251 26779
GSAT0224 (GALILEO 28)   
1 49810U 21116B   26092.44211676 -.00000097  00000+0  00000+0 0  9998
2 49810  57.1862 343.7214 0001081  14.2092 171.7867  1.70475826 26910
GOES 18                 
1 51850U 22021A   26094.24313838  .00000096  00000+0  00000+0 0  9992
2 51850   0.0488  36.1429 0000810  39.6540  67.2980  1.00274048  5858
COSMOS 2557 (706K)      
1 52984U 22075A   26092.08886449 -.00000045  00000+0  00000+0 0  9998
2 52984  64.3418 317.1673 0010785 282.9879  76.9461  2.13101860 29095
METEOSAT-12 (MTG-I1)    
1 54743U 22170C   26094.17619981 -.00000007  00000+0  00000+0 0  9994
2 54743   0.7394  26.4500 0001563 302.1291 287.0346  1.00274564 12235
METEOR-M2 3             
1 57166U 23091A   26094.25266414  .00000042  00000+0  37080-4 0  9998
2 57166  98.6165 150.7177 0004515  40.0398 320.1113 14.24040570143993
COSMOS 2569 (703K)      
1 57517U 23114A   26094.11069508 -.00000004  00000+0  00000+0 0  9990
2 57517  65.2614  75.1171 0012843 293.7768  66.0733  2.13103947 20684
METEOR-M2 4             
1 59051U 24039A   26094.25379816  .00000064  00000+0  48220-4 0  9999
2 59051  98.6947  54.5088 0007679  31.7607 328.4033 14.22421426108750
GSAT0225 (GALILEO 29)   
1 59598U 24079A   26087.07569868  .00000039  00000+0  00000+0 0  9990
2 59598  55.0678 103.3445 0002740 270.8462 214.7370  1.70474547 11938
GSAT0227 (GALILEO 30)   
1 59600U 24079C   26091.74719189  .00000033  00000+0  00000+0 0  9990
2 59600  55.0650 103.2128 0000755   8.4002 351.6436  1.70474669 12062
GSAT0232 (GALILEO 32)   
1 61182U 24167A   26091.38929149 -.00000024  00000+0  00000+0 0  9996
2 61182  55.2109 223.4183 0004053 206.9701 148.9260  1.70474484  9561
GSAT0226 (GALILEO 31)   
1 61183U 24167B   26093.60885669 -.00000011  00000+0  00000+0 0  9998
2 61183  55.2079 223.3648 0001443 157.3000 212.1474  1.70474564  9586
GSAT0233 (GALILEO 33)   
1 67160U 25302A   26091.38740751  .00000034  00000+0  00000+0 0  9990
2 67160  54.2843 104.3167 0002459 236.0206 306.5021  1.70474797  1812
GSAT0234 (GALILEO 34)   
1 67162U 25302C   26092.85132073  .00000029  00000+0  00000+0 0  9991
2 67162  54.2863 104.2742 0003884 286.4300 254.6427  1.70474820  1899
